[{"OBJECT_NAME":"YAOGAN-39 03C","OBJECT_ID":"2023-152E","EPOCH":"2026-03-09T18:54:59.298048","MEAN_MOTION":15.17057677,"ECCENTRICITY":0.00104072,"INCLINATION":34.9896,"RA_OF_ASC_NODE":195.9796,"ARG_OF_PERICENTER":330.7235,"MEAN_ANOMALY":29.2893,"EPHEMERIS_TYPE":0,"CLASSIFICATION_TYPE":"U","NORAD_CAT_ID":57990,"ELEMENT_SET_NO":999,"REV_AT_EPOCH":13505,"BSTAR":0.00036411545,"MEAN_MOTION_DOT":7.356e-5,"MEAN_MOTION_DDOT":0},{"OBJECT_NAME":"GUANGCHUAN 01","OBJECT_ID":"2024-221A","EPOCH":"2026-03-09T23:52:27.422976","MEAN_MOTION":15.16881016,"ECCENTRICITY":0.00068686,"INCLINATION":49.9429,"RA_OF_ASC_NODE":284.8759,"ARG_OF_PERICENTER":260.2955,"MEAN_ANOMALY":99.7221,"EPHEMERIS_TYPE":0,"CLASSIFICATION_TYPE":"U","NORAD_CAT_ID":62111,"ELEMENT_SET_NO":999,"REV_AT_EPOCH":7115,"BSTAR":0.00030732874,"MEAN_MOTION_DOT":5.834e-5,"MEAN_MOTION_DDOT":0}]
